STARLINK-31697          
1 59583U 24076V   26068.22621676  .00000691  00000+0  33673-4 0  9994
2 59583  43.0011  11.4517 0001352 268.5323  91.5374 15.28599043106349
BLUEBON                 
1 62688U 25009CH  26068.70316231  .00010452  00000+0  37313-3 0  9992
2 62688  97.4017 152.2033 0001193  43.3900 316.7434 15.29047253 63767
